ONEWEB-0446             
1 51640U 22012U   25227.89339389 -.00000665  00000+0 -19407-2 0  9994
2 51640  87.8776  97.1832 0001510  81.1030 279.0269 13.10373466169343
ONEWEB-0448             
1 51641U 22012V   25228.20377800 -.00000653  00000+0 -19082-2 0  9997
2 51641  87.8775  97.1208 0001793  80.7277 279.4053 13.10376596170648
ONEWEB-0449             
1 51642U 22012W   25227.90336357 -.00000575  00000+0 -16826-2 0  9992
2 51642  87.8778  97.1531 0002093  91.6066 268.5301 13.10374412169325
ONEWEB-0451             
1 51643U 22012X   25228.24917538  .00000030  00000+0  44895-4 0  9990
2 51643  87.9030  66.5084 0001881  91.4023 268.7324 13.17650189174807
ONEWEB-0452             
1 51644U 22012Y   25228.09563138 -.00001058  00000+0 -27575-2 0  9994
2 51644  87.9022  66.6035 0002047  90.7490 269.3876 13.17642044174799
ONEWEB-0456             
1 51646U 22012AA  25227.91332851 -.00000132  00000+0 -41374-3 0  9998
2 51646  87.8786  97.1091 0001767  73.2387 286.8934 13.10376526169365
ONEWEB-0457             
1 51647U 22012AB  25228.34823402 -.00000471  00000+0 -13869-2 0  9997
2 51647  87.8773  97.0805 0001679  93.9774 266.1546 13.10367373170727
ONEWEB-0458             
1 51648U 22012AC  25228.36980757 -.00000311  00000+0 -92701-3 0  9993
2 51648  87.8771  97.0494 0001904  81.5230 278.6113 13.10375847170689
ONEWEB-0461             
1 51649U 22012AD  25228.26942119 -.00000292  00000+0 -78616-3 0  9990
2 51649  87.9024  66.5185 0001616  89.5795 270.5521 13.17646840175022
ONEWEB-0463             
1 51650U 22012AE  25228.25087179 -.00000036  00000+0 -12716-3 0  9992
2 51650  87.9019  66.5854 0001834  87.6084 272.5257 13.17649050174813
ONEWEB-0464             
1 51651U 22012AF  25227.90833672 -.00003568  00000+0 -10259-1 0  9992
2 51651  87.8778  97.1784 0001938  68.3580 291.7754 13.10383528169344
ONEWEB-0468             
1 51652U 22012AG  25228.37312906 -.00000192  00000+0 -58495-3 0  9993
2 51652  87.8780  97.0773 0001814  79.0069 281.1262 13.10375875170670
ONEWEB-0473             
1 51653U 22012AH  25228.12910646 -.00000470  00000+0 -13826-2 0  9999
2 51653  87.8774  97.1294 0001857  79.1774 280.9562 13.10374757170650
ONEWEB-0474             
1 51654U 22012AJ  25228.34988868 -.00000486  00000+0 -14277-2 0  9993
2 51654  87.8779  97.0451 0001960  74.8987 285.2357 13.10371130170666
ONEWEB-0475             
1 51655U 22012AK  25228.26268473 -.00000046  00000+0 -15199-3 0  9995
2 51655  87.9022  66.5647 0002535  78.6775 281.4641 13.17648055174829
ONEWEB-0490             
1 54113U 22138A   25227.89617024  .00000039  00000+0  65400-4 0  9995
2 54113  87.9258   5.6394 0001804  89.5930 270.5410 13.19724537136561
ONEWEB-0492             
1 54114U 22138B   25227.92144371  .00000008  00000+0 -12638-4 0  9992
2 54114  87.9253   5.6576 0001623  92.7106 267.4212 13.19727242136571
