[{"OBJECT_NAME":"ONEWEB-0446","OBJECT_ID":"2022-012U","EPOCH":"2025-08-15T21:26:29.232096","MEAN_MOTION":13.10373466,"ECCENTRICITY":0.000151,"INCLINATION":87.8776,"RA_OF_ASC_NODE":97.1832,"ARG_OF_PERICENTER":81.103,"MEAN_ANOMALY":279.0269,"EPHEMERIS_TYPE":0,"CLASSIFICATION_TYPE":"U","NORAD_CAT_ID":51640,"ELEMENT_SET_NO":999,"REV_AT_EPOCH":16934,"BSTAR":-0.0019407,"MEAN_MOTION_DOT":-6.65e-6,"MEAN_MOTION_DDOT":0},{"OBJECT_NAME":"ONEWEB-0448","OBJECT_ID":"2022-012V","EPOCH":"2025-08-16T04:53:26.419200","MEAN_MOTION":13.10376596,"ECCENTRICITY":0.0001793,"INCLINATION":87.8775,"RA_OF_ASC_NODE":97.1208,"ARG_OF_PERICENTER":80.7277,"MEAN_ANOMALY":279.4053,"EPHEMERIS_TYPE":0,"CLASSIFICATION_TYPE":"U","NORAD_CAT_ID":51641,"ELEMENT_SET_NO":999,"REV_AT_EPOCH":17064,"BSTAR":-0.0019082,"MEAN_MOTION_DOT":-6.53e-6,"MEAN_MOTION_DDOT":0},{"OBJECT_NAME":"ONEWEB-0449","OBJECT_ID":"2022-012W","EPOCH":"2025-08-15T21:40:50.612448","MEAN_MOTION":13.10374412,"ECCENTRICITY":0.0002093,"INCLINATION":87.8778,"RA_OF_ASC_NODE":97.1531,"ARG_OF_PERICENTER":91.6066,"MEAN_ANOMALY":268.5301,"EPHEMERIS_TYPE":0,"CLASSIFICATION_TYPE":"U","NORAD_CAT_ID":51642,"ELEMENT_SET_NO":999,"REV_AT_EPOCH":16932,"BSTAR":-0.0016826,"MEAN_MOTION_DOT":-5.75e-6,"MEAN_MOTION_DDOT":0},{"OBJECT_NAME":"ONEWEB-0451","OBJECT_ID":"2022-012X","EPOCH":"2025-08-16T05:58:48.752832","MEAN_MOTION":13.17650189,"ECCENTRICITY":0.0001881,"INCLINATION":87.903,"RA_OF_ASC_NODE":66.5084,"ARG_OF_PERICENTER":91.4023,"MEAN_ANOMALY":268.7324,"EPHEMERIS_TYPE":0,"CLASSIFICATION_TYPE":"U","NORAD_CAT_ID":51643,"ELEMENT_SET_NO":999,"REV_AT_EPOCH":17480,"BSTAR":4.4895e-5,"MEAN_MOTION_DOT":3.0e-7,"MEAN_MOTION_DDOT":0},{"OBJECT_NAME":"ONEWEB-0452","OBJECT_ID":"2022-012Y","EPOCH":"2025-08-16T02:17:42.551232","MEAN_MOTION":13.17642044,"ECCENTRICITY":0.0002047,"INCLINATION":87.9022,"RA_OF_ASC_NODE":66.6035,"ARG_OF_PERICENTER":90.749,"MEAN_ANOMALY":269.3876,"EPHEMERIS_TYPE":0,"CLASSIFICATION_TYPE":"U","NORAD_CAT_ID":51644,"ELEMENT_SET_NO":999,"REV_AT_EPOCH":17479,"BSTAR":-0.0027575,"MEAN_MOTION_DOT":-1.058e-5,"MEAN_MOTION_DDOT":0},{"OBJECT_NAME":"ONEWEB-0456","OBJECT_ID":"2022-012AA","EPOCH":"2025-08-15T21:55:11.583264","MEAN_MOTION":13.10376526,"ECCENTRICITY":0.0001767,"INCLINATION":87.8786,"RA_OF_ASC_NODE":97.1091,"ARG_OF_PERICENTER":73.2387,"MEAN_ANOMALY":286.8934,"EPHEMERIS_TYPE":0,"CLASSIFICATION_TYPE":"U","NORAD_CAT_ID":51646,"ELEMENT_SET_NO":999,"REV_AT_EPOCH":16936,"BSTAR":-0.00041374,"MEAN_MOTION_DOT":-1.32e-6,"MEAN_MOTION_DDOT":0},{"OBJECT_NAME":"ONEWEB-0457","OBJECT_ID":"2022-012AB","EPOCH":"2025-08-16T08:21:27.419328","MEAN_MOTION":13.10367373,"ECCENTRICITY":0.0001679,"INCLINATION":87.8773,"RA_OF_ASC_NODE":97.0805,"ARG_OF_PERICENTER":93.9774,"MEAN_ANOMALY":266.1546,"EPHEMERIS_TYPE":0,"CLASSIFICATION_TYPE":"U","NORAD_CAT_ID":51647,"ELEMENT_SET_NO":999,"REV_AT_EPOCH":17072,"BSTAR":-0.0013869,"MEAN_MOTION_DOT":-4.71e-6,"MEAN_MOTION_DDOT":0},{"OBJECT_NAME":"ONEWEB-0458","OBJECT_ID":"2022-012AC","EPOCH":"2025-08-16T08:52:31.374048","MEAN_MOTION":13.10375847,"ECCENTRICITY":0.0001904,"INCLINATION":87.8771,"RA_OF_ASC_NODE":97.0494,"ARG_OF_PERICENTER":81.523,"MEAN_ANOMALY":278.6113,"EPHEMERIS_TYPE":0,"CLASSIFICATION_TYPE":"U","NORAD_CAT_ID":51648,"ELEMENT_SET_NO":999,"REV_AT_EPOCH":17068,"BSTAR":-0.00092701,"MEAN_MOTION_DOT":-3.11e-6,"MEAN_MOTION_DDOT":0},{"OBJECT_NAME":"ONEWEB-0461","OBJECT_ID":"2022-012AD","EPOCH":"2025-08-16T06:27:57.990816","MEAN_MOTION":13.1764684,"ECCENTRICITY":0.0001616,"INCLINATION":87.9024,"RA_OF_ASC_NODE":66.5185,"ARG_OF_PERICENTER":89.5795,"MEAN_ANOMALY":270.5521,"EPHEMERIS_TYPE":0,"CLASSIFICATION_TYPE":"U","NORAD_CAT_ID":51649,"ELEMENT_SET_NO":999,"REV_AT_EPOCH":17502,"BSTAR":-0.00078616,"MEAN_MOTION_DOT":-2.92e-6,"MEAN_MOTION_DDOT":0},{"OBJECT_NAME":"ONEWEB-0463","OBJECT_ID":"2022-012AE","EPOCH":"2025-08-16T06:01:15.322656","MEAN_MOTION":13.1764905,"ECCENTRICITY":0.0001834,"INCLINATION":87.9019,"RA_OF_ASC_NODE":66.5854,"ARG_OF_PERICENTER":87.6084,"MEAN_ANOMALY":272.5257,"EPHEMERIS_TYPE":0,"CLASSIFICATION_TYPE":"U","NORAD_CAT_ID":51650,"ELEMENT_SET_NO":999,"REV_AT_EPOCH":17481,"BSTAR":-0.00012716,"MEAN_MOTION_DOT":-3.6e-7,"MEAN_MOTION_DDOT":0},{"OBJECT_NAME":"ONEWEB-0464","OBJECT_ID":"2022-012AF","EPOCH":"2025-08-15T21:48:00.292608","MEAN_MOTION":13.10383528,"ECCENTRICITY":0.0001938,"INCLINATION":87.8778,"RA_OF_ASC_NODE":97.1784,"ARG_OF_PERICENTER":68.358,"MEAN_ANOMALY":291.7754,"EPHEMERIS_TYPE":0,"CLASSIFICATION_TYPE":"U","NORAD_CAT_ID":51651,"ELEMENT_SET_NO":999,"REV_AT_EPOCH":16934,"BSTAR":-0.010259,"MEAN_MOTION_DOT":-3.568e-5,"MEAN_MOTION_DDOT":0},{"OBJECT_NAME":"ONEWEB-0468","OBJECT_ID":"2022-012AG","EPOCH":"2025-08-16T08:57:18.350784","MEAN_MOTION":13.10375875,"ECCENTRICITY":0.0001814,"INCLINATION":87.878,"RA_OF_ASC_NODE":97.0773,"ARG_OF_PERICENTER":79.0069,"MEAN_ANOMALY":281.1262,"EPHEMERIS_TYPE":0,"CLASSIFICATION_TYPE":"U","NORAD_CAT_ID":51652,"ELEMENT_SET_NO":999,"REV_AT_EPOCH":17067,"BSTAR":-0.00058495,"MEAN_MOTION_DOT":-1.92e-6,"MEAN_MOTION_DDOT":0},{"OBJECT_NAME":"ONEWEB-0473","OBJECT_ID":"2022-012AH","EPOCH":"2025-08-16T03:05:54.798144","MEAN_MOTION":13.10374757,"ECCENTRICITY":0.0001857,"INCLINATION":87.8774,"RA_OF_ASC_NODE":97.1294,"ARG_OF_PERICENTER":79.1774,"MEAN_ANOMALY":280.9562,"EPHEMERIS_TYPE":0,"CLASSIFICATION_TYPE":"U","NORAD_CAT_ID":51653,"ELEMENT_SET_NO":999,"REV_AT_EPOCH":17065,"BSTAR":-0.0013826,"MEAN_MOTION_DOT":-4.7e-6,"MEAN_MOTION_DDOT":0},{"OBJECT_NAME":"ONEWEB-0474","OBJECT_ID":"2022-012AJ","EPOCH":"2025-08-16T08:23:50.381952","MEAN_MOTION":13.1037113,"ECCENTRICITY":0.000196,"INCLINATION":87.8779,"RA_OF_ASC_NODE":97.0451,"ARG_OF_PERICENTER":74.8987,"MEAN_ANOMALY":285.2357,"EPHEMERIS_TYPE":0,"CLASSIFICATION_TYPE":"U","NORAD_CAT_ID":51654,"ELEMENT_SET_NO":999,"REV_AT_EPOCH":17066,"BSTAR":-0.0014277,"MEAN_MOTION_DOT":-4.86e-6,"MEAN_MOTION_DDOT":0},{"OBJECT_NAME":"ONEWEB-0475","OBJECT_ID":"2022-012AK","EPOCH":"2025-08-16T06:18:15.960672","MEAN_MOTION":13.17648055,"ECCENTRICITY":0.0002535,"INCLINATION":87.9022,"RA_OF_ASC_NODE":66.5647,"ARG_OF_PERICENTER":78.6775,"MEAN_ANOMALY":281.4641,"EPHEMERIS_TYPE":0,"CLASSIFICATION_TYPE":"U","NORAD_CAT_ID":51655,"ELEMENT_SET_NO":999,"REV_AT_EPOCH":17482,"BSTAR":-0.00015199,"MEAN_MOTION_DOT":-4.6e-7,"MEAN_MOTION_DDOT":0},{"OBJECT_NAME":"ONEWEB-0490","OBJECT_ID":"2022-138A","EPOCH":"2025-08-15T21:30:29.108736","MEAN_MOTION":13.19724537,"ECCENTRICITY":0.0001804,"INCLINATION":87.9258,"RA_OF_ASC_NODE":5.6394,"ARG_OF_PERICENTER":89.593,"MEAN_ANOMALY":270.541,"EPHEMERIS_TYPE":0,"CLASSIFICATION_TYPE":"U","NORAD_CAT_ID":54113,"ELEMENT_SET_NO":999,"REV_AT_EPOCH":13656,"BSTAR":6.54e-5,"MEAN_MOTION_DOT":3.9e-7,"MEAN_MOTION_DDOT":0},{"OBJECT_NAME":"ONEWEB-0492","OBJECT_ID":"2022-138B","EPOCH":"2025-08-15T22:06:52.736544","MEAN_MOTION":13.19727242,"ECCENTRICITY":0.0001623,"INCLINATION":87.9253,"RA_OF_ASC_NODE":5.6576,"ARG_OF_PERICENTER":92.7106,"MEAN_ANOMALY":267.4212,"EPHEMERIS_TYPE":0,"CLASSIFICATION_TYPE":"U","NORAD_CAT_ID":54114,"ELEMENT_SET_NO":999,"REV_AT_EPOCH":13657,"BSTAR":-1.2638e-5,"MEAN_MOTION_DOT":8.0e-8,"MEAN_MOTION_DDOT":0}]
